TROLL                   
1 62658U 25009BB  26068.22522958  .00013174  00000+0  48220-3 0  9994
2 62658  97.3932 150.7169 0001816  59.1850 300.9568 15.28164315118170
STARLINK-35894          
1 66500U 25263R   26068.12947469  .00031549  00000+0  11503-2 0  9992
2 66500  43.0052 357.2906 0001974 261.2199  98.8430 15.27600519 18777
